format  = 'OEF2.0'       ! file format
rectype = 'ML'           ! record type (1L/ML)
refsys  = ECLM J2000     ! default reference system
END_OF_HEADER
30101
! Cartesian position and velocity vectors
 CAR  -2.091520368749841E+00  1.087365252144358E+00 -1.296308055295914E-02 -4.232108073671913E-03 -9.815511683390437E-03  3.036574556408467E-04
 MJD     56117.141933590 TDT
 MAG  15.384  0.150
! Non-grav parameters: model used, actual number in use, dimension
 LSP   0  0    6
! RMS    1.19353E-07   1.71253E-07   1.75350E-07   6.01107E-10   3.88639E-10   6.99288E-10
! EIG   2.02427E-11   2.65357E-10   6.77303E-10   7.26773E-08   1.75086E-07   1.95918E-07
! WEA  -0.51823  -0.84819   0.10955   0.00271  -0.00082  -0.00005
 COV   1.424512592513762E-14  1.468048105101328E-14 -5.238852526378804E-16
 COV  -6.254285091992727E-17 -4.539110707265226E-18  1.908641172077178E-19
 COV   2.932773185000662E-14 -6.661734386104244E-16 -8.378795885727479E-17
 COV   3.965257408942149E-17 -1.624765952033082E-18  3.074759780324133E-14
 COV   4.552543726304976E-18 -3.039162418883463E-18 -3.055574687797688E-17
 COV   3.613295777870579E-19 -6.519002301641325E-20  4.558403446793992E-21
 COV   1.510406104031935E-19  9.175195107482595E-21  4.890036538455768E-19
 NOR   4.767395353744728E+16 -2.552390334732878E+16  3.246217838339522E+14
 NOR   4.126325209595722E+18  9.939674117409247E+18 -3.080927071296638E+17
 NOR   1.384525732436474E+16 -1.777753395790402E+14 -2.173098998667718E+18
 NOR  -5.353392135752626E+18  1.655593375673118E+17  3.707443380859957E+13
 NOR   2.690679748258614E+16  6.878244974155477E+16  5.785357856572638E+13
 NOR   3.673758689778373E+20  8.552274981796003E+20 -2.662089305637271E+19
 NOR   2.085173530462044E+21 -6.446533267060519E+19  4.176650902528938E+18
! EPH =   JPLDE431
